OBJECT_NAME,OBJECT_ID,EPOCH,MEAN_MOTION,ECCENTRICITY,INCLINATION,RA_OF_ASC_NODE,ARG_OF_PERICENTER,MEAN_ANOMALY,EPHEMERIS_TYPE,CLASSIFICATION_TYPE,NORAD_CAT_ID,ELEMENT_SET_NO,REV_AT_EPOCH,BSTAR,MEAN_MOTION_DOT,MEAN_MOTION_DDOT
STARLINK-37376,2026-123AB,2026-06-15T14:00:01.999872,15.82170638,.00011224,53.1567,249.2098,58.9324,200.3687,0,U,69378,999,303,-.90911094E-2,-.1658409E-1,0
STARLINK-37383,2026-123AC,2026-06-15T14:00:01.999872,15.82956590,.00012097,53.1559,249.1389,81.9887,211.0974,0,U,69379,999,303,-.11098658E-1,-.2080086E-1,0
STARLINK-37411,2026-123AD,2026-06-15T14:00:01.999872,15.82029016,.00012828,53.1565,249.1948,67.2940,198.9265,0,U,69380,999,303,-.80550262E-2,-.1483281E-1,0
STARLINK-37427,2026-123AE,2026-06-15T14:00:01.999872,15.83307887,.0000966,53.1561,249.1498,83.6041,204.3628,0,U,69381,999,294,-.10797874E-1,-.2060953E-1,0
QIANFAN-165,2026-124A,2026-06-15T06:41:25.735776,14.18139656,.00025743,88.9992,2.2544,138.4177,221.7208,0,U,69382,999,154,.30714277E-4,.77E-6,0
QIANFAN-166,2026-124B,2026-06-15T04:56:03.687936,14.19661326,.0001915,89.0004,2.2626,119.0481,241.0901,0,U,69383,999,153,.31036E-4,.8E-6,0
QIANFAN-167,2026-124C,2026-06-15T01:32:57.221952,14.18222502,.00029683,89.0038,2.2748,191.3607,168.7516,0,U,69384,999,151,.31470224E-4,.79E-6,0
QIANFAN-168,2026-124D,2026-06-15T06:33:59.117760,14.20448766,.00024504,88.9984,2.2556,140.5561,219.5808,0,U,69385,999,154,-.16039541E-3,-.329E-5,0
QIANFAN-169,2026-124E,2026-06-15T09:54:47.155392,14.20977804,.00031443,88.9984,2.2389,155.5146,204.6194,0,U,69386,999,156,.30388194E-4,.8E-6,0
QIANFAN-170,2026-124F,2026-06-15T13:15:22.949280,14.21113817,.00025342,88.9983,2.2229,128.7684,231.3733,0,U,69387,999,158,.29518147E-4,.79E-6,0
QIANFAN-171,2026-124G,2026-06-15T01:23:27.878784,14.22005936,.00011359,88.9986,2.2784,166.2238,193.8984,0,U,69388,999,151,.31488505E-4,.84E-6,0
QIANFAN-172,2026-124H,2026-06-15T13:14:11.581152,14.21599309,.00017189,88.9982,2.2222,154.4272,205.7004,0,U,69389,999,158,.29532325E-4,.79E-6,0
QIANFAN-173,2026-124J,2026-06-15T01:22:31.239264,14.22322535,.00015918,88.9983,2.2841,123.9010,236.2333,0,U,69390,999,151,.31527212E-4,.85E-6,0
QIANFAN-174,2026-124K,2026-06-14T23:39:12.844512,14.24080053,.00022594,88.9845,2.3165,150.8334,209.2985,0,U,69391,999,150,.32613639E-4,.9E-6,0
QIANFAN-175,2026-124L,2026-06-15T01:20:33.890784,14.24392474,.00026301,88.9963,2.2752,177.7198,182.4007,0,U,69392,999,151,.32107083E-4,.89E-6,0
QIANFAN-176,2026-124M,2026-06-15T06:22:45.500160,14.25423597,.00018638,88.9982,2.2554,187.2565,172.8601,0,U,69393,999,154,.31691972E-4,.89E-6,0
QIANFAN-177,2026-124N,2026-06-15T09:44:04.866432,14.25688492,.00030317,88.9981,2.2376,158.8133,201.3186,0,U,69394,999,156,.10253172E-4,.39E-6,0
QIANFAN-178,2026-124P,2026-06-15T06:22:14.459232,14.25436446,.00033247,88.9956,2.2494,163.3318,196.7985,0,U,69395,999,154,.22045179E-4,.67E-6,0
QIANFAN-179,2026-124Q,2026-06-15T14:46:40.963296,14.25728807,.00027797,88.9983,2.2134,166.0811,194.0459,0,U,69396,999,159,.31047564E-4,.88E-6,0
QIANFAN-180,2026-124R,2026-06-14T00:01:53.851872,14.26489166,.00023412,88.9984,2.3989,170.3819,189.7420,0,U,69397,999,136,.3682278E-4,.103E-5,0
QIANFAN-181,2026-124S,2026-06-14T03:36:53.227584,14.21115081,.00021189,88.9983,2.3842,140.0514,220.0833,0,U,69398,999,138,.36214652E-4,.93E-6,0
QIANFAN-182,2026-124T,2026-06-13T19:02:53.132928,14.24123720,.0003044,88.9961,2.4186,159.9795,200.1517,0,U,69399,999,133,.37156E-4,.1E-5,0
DTC TEST OBJECT A,2026-128A,2026-06-15T15:01:48.299808,15.55767307,.00083236,54.9944,312.2387,282.6662,77.3442,0,U,69472,999,98,.31297664E-3,.21544E-3,0
DTC TEST OBJECT B,2026-128B,2026-06-15T15:00:04.217184,15.56204024,.00083777,55.0036,312.2359,283.9090,76.1014,0,U,69473,999,97,.37731171E-3,.26519E-3,0
TJS-25,2026-129A,2026-06-11T11:34:53.014656,1.72502163,.7751889,16.5302,30.5351,199.9639,91.9387,0,U,69474,999,7,.19774E-2,.7407E-4,0
2026-132A,2026-132A,2026-06-15T10:04:13.801152,14.99042867,.0012337,97.6913,230.1185,277.6958,82.2864,0,U,69502,999,51,.47938985E-4,.523E-5,0
2026-132B,2026-132B,2026-06-15T10:03:56.089152,14.99133636,.0012254,97.6944,230.1202,279.8965,80.0874,0,U,69503,999,51,.27920975E-4,.28E-5,0
BRO-22,2026-132C,2026-06-15T10:01:55.332192,14.99758159,.00137753,97.6883,230.1175,291.4315,68.5438,0,U,69504,999,51,.94663384E-4,.1112E-4,0
2026-132D,2026-132D,2026-06-15T19:33:27.310752,15.01568237,.0003842,97.6627,230.4955,313.0893,47.0010,0,U,69505,999,57,.12173E-3,.1517E-4,0
