STARLINK-37376          
1 69378U 26123AB  26166.58335648 -.01658409  00000+0 -90911-2 0  9996
2 69378  53.1567 249.2098 0001122  58.9324 200.3687 15.82170638  3036
STARLINK-37383          
1 69379U 26123AC  26166.58335648 -.02080086  00000+0 -11099-1 0  9997
2 69379  53.1559 249.1389 0001209  81.9887 211.0974 15.82956590  3033
STARLINK-37411          
1 69380U 26123AD  26166.58335648 -.01483281  00000+0 -80550-2 0  9991
2 69380  53.1565 249.1948 0001282  67.2940 198.9265 15.82029016  3031
STARLINK-37427          
1 69381U 26123AE  26166.58335648 -.02060953  00000+0 -10798-1 0  9996
2 69381  53.1561 249.1498 0000966  83.6041 204.3628 15.83307887  2940
QIANFAN-165             
1 69382U 26124A   26166.27877009  .00000077  00000+0  30714-4 0  9996
2 69382  88.9992   2.2544 0002574 138.4177 221.7208 14.18139656  1547
QIANFAN-166             
1 69383U 26124B   26166.20559824  .00000080  00000+0  31036-4 0  9994
2 69383  89.0004   2.2626 0001915 119.0481 241.0901 14.19661326  1535
QIANFAN-167             
1 69384U 26124C   26166.06455118  .00000079  00000+0  31470-4 0  9990
2 69384  89.0038   2.2748 0002968 191.3607 168.7516 14.18222502  1513
QIANFAN-168             
1 69385U 26124D   26166.27360090 -.00000329  00000+0 -16040-3 0  9993
2 69385  88.9984   2.2556 0002450 140.5561 219.5808 14.20448766  1547
QIANFAN-169             
1 69386U 26124E   26166.41304578  .00000080  00000+0  30388-4 0  9993
2 69386  88.9984   2.2389 0003144 155.5146 204.6194 14.20977804  1563
QIANFAN-170             
1 69387U 26124F   26166.55234895  .00000079  00000+0  29518-4 0  9994
2 69387  88.9983   2.2229 0002534 128.7684 231.3733 14.21113817  1582
QIANFAN-171             
1 69388U 26124G   26166.05796156  .00000084  00000+0  31489-4 0  9999
2 69388  88.9986   2.2784 0001135 166.2238 193.8984 14.22005936  1516
QIANFAN-172             
1 69389U 26124H   26166.55152293  .00000079  00000+0  29532-4 0  9993
2 69389  88.9982   2.2222 0001718 154.4272 205.7004 14.21599309  1588
QIANFAN-173             
1 69390U 26124J   26166.05730601  .00000085  00000+0  31527-4 0  9999
2 69390  88.9983   2.2841 0001591 123.9010 236.2333 14.22322535  1511
QIANFAN-174             
1 69391U 26124K   26165.98556533  .00000090  00000+0  32614-4 0  9995
2 69391  88.9845   2.3165 0002259 150.8334 209.2985 14.24080053  1509
QIANFAN-175             
1 69392U 26124L   26166.05594781  .00000089  00000+0  32107-4 0  9997
2 69392  88.9963   2.2752 0002630 177.7198 182.4007 14.24392474  1512
QIANFAN-176             
1 69393U 26124M   26166.26580440  .00000089  00000+0  31692-4 0  9996
2 69393  88.9982   2.2554 0001863 187.2565 172.8601 14.25423597  1543
QIANFAN-177             
1 69394U 26124N   26166.40561188  .00000039  00000+0  10253-4 0  9996
2 69394  88.9981   2.2376 0003031 158.8133 201.3186 14.25688492  1564
QIANFAN-178             
1 69395U 26124P   26166.26544513  .00000067  00000+0  22045-4 0  9997
2 69395  88.9956   2.2494 0003324 163.3318 196.7985 14.25436446  1541
QIANFAN-179             
1 69396U 26124Q   26166.61575189  .00000088  00000+0  31048-4 0  9996
2 69396  88.9983   2.2134 0002779 166.0811 194.0459 14.25728807  1591
QIANFAN-180             
1 69397U 26124R   26165.00131773  .00000103  00000+0  36823-4 0  9990
2 69397  88.9984   2.3989 0002341 170.3819 189.7420 14.26489166  1360
QIANFAN-181             
1 69398U 26124S   26165.15061606  .00000093  00000+0  36215-4 0  9997
2 69398  88.9983   2.3842 0002118 140.0514 220.0833 14.21115081  1382
QIANFAN-182             
1 69399U 26124T   26164.79367052  .00000100  00000+0  37156-4 0  9995
2 69399  88.9961   2.4186 0003044 159.9795 200.1517 14.24123720  1335
DTC TEST OBJECT A       
1 69472U 26128A   26166.62625347  .00021544  00000+0  31298-3 0  9994
2 69472  54.9944 312.2387 0008323 282.6662  77.3442 15.55767307   989
DTC TEST OBJECT B       
1 69473U 26128B   26166.62504881  .00026519  00000+0  37731-3 0  9999
2 69473  55.0036 312.2359 0008377 283.9090  76.1014 15.56204024   975
TJS-25                  
1 69474U 26129A   26162.48255804  .00007407  00000+0  19774-2 0  9990
2 69474  16.5302  30.5351 7751889 199.9639  91.9387  1.72502163    78
2026-132A               
1 69502U 26132A   26166.41960418  .00000523  00000+0  47939-4 0  9995
2 69502  97.6913 230.1185 0012337 277.6958  82.2864 14.99042867   515
2026-132B               
1 69503U 26132B   26166.41939918  .00000280  00000+0  27921-4 0  9996
2 69503  97.6944 230.1202 0012254 279.8965  80.0874 14.99133636   512
BRO-22                  
1 69504U 26132C   26166.41800153  .00001112  00000+0  94663-4 0  9997
2 69504  97.6883 230.1175 0013775 291.4315  68.5438 14.99758159   512
2026-132D               
1 69505U 26132D   26166.81489943  .00001517  00000+0  12173-3 0  9996
2 69505  97.6627 230.4955 0003842 313.0893  47.0010 15.01568237   578
